[{"OBJECT_NAME":"COSMOS 2251 DEB","OBJECT_ID":"1993-036LW","EPOCH":"2026-03-02T19:30:30.552768","MEAN_MOTION":14.57818078,"ECCENTRICITY":0.0020943,"INCLINATION":74.0226,"RA_OF_ASC_NODE":293.0082,"ARG_OF_PERICENTER":56.8176,"MEAN_ANOMALY":66.5631,"EPHEMERIS_TYPE":0,"CLASSIFICATION_TYPE":"U","NORAD_CAT_ID":34276,"ELEMENT_SET_NO":999,"REV_AT_EPOCH":89759,"BSTAR":0.00065439,"MEAN_MOTION_DOT":2.975e-5,"MEAN_MOTION_DDOT":0},{"OBJECT_NAME":"COSMOS 2251 DEB","OBJECT_ID":"1993-036MT","EPOCH":"2026-03-02T15:33:34.925760","MEAN_MOTION":14.36707411,"ECCENTRICITY":0.001749,"INCLINATION":74.0484,"RA_OF_ASC_NODE":137.4953,"ARG_OF_PERICENTER":195.4118,"MEAN_ANOMALY":281.2478,"EPHEMERIS_TYPE":0,"CLASSIFICATION_TYPE":"U","NORAD_CAT_ID":34297,"ELEMENT_SET_NO":999,"REV_AT_EPOCH":89212,"BSTAR":0.00013967,"MEAN_MOTION_DOT":3.86e-6,"MEAN_MOTION_DDOT":0},{"OBJECT_NAME":"COSMOS 2251 DEB","OBJECT_ID":"1993-036MX","EPOCH":"2026-03-02T07:25:52.362048","MEAN_MOTION":14.8947114,"ECCENTRICITY":0.00053858,"INCLINATION":74.0051,"RA_OF_ASC_NODE":7.922,"ARG_OF_PERICENTER":53.5365,"MEAN_ANOMALY":74.8335,"EPHEMERIS_TYPE":0,"CLASSIFICATION_TYPE":"U","NORAD_CAT_ID":34301,"ELEMENT_SET_NO":999,"REV_AT_EPOCH":89583,"BSTAR":0.0051746017,"MEAN_MOTION_DOT":0.00049597,"MEAN_MOTION_DDOT":0},{"OBJECT_NAME":"COSMOS 2251 DEB","OBJECT_ID":"1993-036MY","EPOCH":"2026-03-02T19:38:03.934176","MEAN_MOTION":14.39787495,"ECCENTRICITY":0.0078593,"INCLINATION":74.1813,"RA_OF_ASC_NODE":336.988,"ARG_OF_PERICENTER":170.549,"MEAN_ANOMALY":247.1394,"EPHEMERIS_TYPE":0,"CLASSIFICATION_TYPE":"U","NORAD_CAT_ID":34302,"ELEMENT_SET_NO":999,"REV_AT_EPOCH":88873,"BSTAR":0.00083334,"MEAN_MOTION_DOT":2.685e-5,"MEAN_MOTION_DDOT":0},{"OBJECT_NAME":"COSMOS 2251 DEB","OBJECT_ID":"1993-036MZ","EPOCH":"2026-03-02T15:09:52.709184","MEAN_MOTION":14.55548863,"ECCENTRICITY":0.01379,"INCLINATION":74.0055,"RA_OF_ASC_NODE":136.4617,"ARG_OF_PERICENTER":256.3425,"MEAN_ANOMALY":226.3265,"EPHEMERIS_TYPE":0,"CLASSIFICATION_TYPE":"U","NORAD_CAT_ID":34303,"ELEMENT_SET_NO":999,"REV_AT_EPOCH":89124,"BSTAR":0.0014328,"MEAN_MOTION_DOT":7.073e-5,"MEAN_MOTION_DDOT":0},{"OBJECT_NAME":"COSMOS 2251 DEB","OBJECT_ID":"1993-036NA","EPOCH":"2026-03-02T20:00:03.117024","MEAN_MOTION":14.3858503,"ECCENTRICITY":0.0125885,"INCLINATION":74.0158,"RA_OF_ASC_NODE":334.7609,"ARG_OF_PERICENTER":93.8175,"MEAN_ANOMALY":328.7389,"EPHEMERIS_TYPE":0,"CLASSIFICATION_TYPE":"U","NORAD_CAT_ID":34304,"ELEMENT_SET_NO":999,"REV_AT_EPOCH":88448,"BSTAR":0.0013025,"MEAN_MOTION_DOT":4.348e-5,"MEAN_MOTION_DDOT":0},{"OBJECT_NAME":"COSMOS 2251 DEB","OBJECT_ID":"1993-036ND","EPOCH":"2026-03-02T10:19:25.527648","MEAN_MOTION":13.54467323,"ECCENTRICITY":0.03925888,"INCLINATION":74.0535,"RA_OF_ASC_NODE":185.2294,"ARG_OF_PERICENTER":358.5576,"MEAN_ANOMALY":62.5333,"EPHEMERIS_TYPE":0,"CLASSIFICATION_TYPE":"U","NORAD_CAT_ID":34307,"ELEMENT_SET_NO":999,"REV_AT_EPOCH":83941,"BSTAR":0.00063970489,"MEAN_MOTION_DOT":6.93e-6,"MEAN_MOTION_DDOT":0},{"OBJECT_NAME":"COSMOS 2251 DEB","OBJECT_ID":"1993-036NK","EPOCH":"2026-03-02T14:32:44.568960","MEAN_MOTION":15.45014959,"ECCENTRICITY":0.0022522,"INCLINATION":73.9641,"RA_OF_ASC_NODE":134.82,"ARG_OF_PERICENTER":298.5989,"MEAN_ANOMALY":61.2955,"EPHEMERIS_TYPE":0,"CLASSIFICATION_TYPE":"U","NORAD_CAT_ID":34313,"ELEMENT_SET_NO":999,"REV_AT_EPOCH":90286,"BSTAR":0.0059307,"MEAN_MOTION_DOT":0.00293125,"MEAN_MOTION_DDOT":0},{"OBJECT_NAME":"COSMOS 2251 DEB","OBJECT_ID":"1993-036NL","EPOCH":"2026-03-02T16:08:50.456544","MEAN_MOTION":14.17644647,"ECCENTRICITY":0.0105564,"INCLINATION":74.0062,"RA_OF_ASC_NODE":165.7122,"ARG_OF_PERICENTER":254.0717,"MEAN_ANOMALY":231.8797,"EPHEMERIS_TYPE":0,"CLASSIFICATION_TYPE":"U","NORAD_CAT_ID":34314,"ELEMENT_SET_NO":999,"REV_AT_EPOCH":87790,"BSTAR":0.00067267,"MEAN_MOTION_DOT":1.419e-5,"MEAN_MOTION_DDOT":0},{"OBJECT_NAME":"COSMOS 2251 DEB","OBJECT_ID":"1993-036NN","EPOCH":"2026-03-02T18:09:48.855744","MEAN_MOTION":14.95908044,"ECCENTRICITY":0.0012082,"INCLINATION":74.0644,"RA_OF_ASC_NODE":176.1117,"ARG_OF_PERICENTER":270.7352,"MEAN_ANOMALY":89.2448,"EPHEMERIS_TYPE":0,"CLASSIFICATION_TYPE":"U","NORAD_CAT_ID":34316,"ELEMENT_SET_NO":999,"REV_AT_EPOCH":90404,"BSTAR":0.0026061,"MEAN_MOTION_DOT":0.00029298,"MEAN_MOTION_DDOT":0},{"OBJECT_NAME":"COSMOS 2251 DEB","OBJECT_ID":"1993-036NP","EPOCH":"2026-03-02T07:36:06.569280","MEAN_MOTION":13.65243086,"ECCENTRICITY":0.03366324,"INCLINATION":73.9217,"RA_OF_ASC_NODE":264.7312,"ARG_OF_PERICENTER":239.1634,"MEAN_ANOMALY":305.4492,"EPHEMERIS_TYPE":0,"CLASSIFICATION_TYPE":"U","NORAD_CAT_ID":34317,"ELEMENT_SET_NO":999,"REV_AT_EPOCH":84705,"BSTAR":0.0006968331,"MEAN_MOTION_DOT":8.09e-6,"MEAN_MOTION_DDOT":0},{"OBJECT_NAME":"COSMOS 2251 DEB","OBJECT_ID":"1993-036NT","EPOCH":"2026-03-02T14:34:59.510208","MEAN_MOTION":14.50459619,"ECCENTRICITY":0.0013777,"INCLINATION":74.0315,"RA_OF_ASC_NODE":6.2524,"ARG_OF_PERICENTER":122.0502,"MEAN_ANOMALY":53.6374,"EPHEMERIS_TYPE":0,"CLASSIFICATION_TYPE":"U","NORAD_CAT_ID":34321,"ELEMENT_SET_NO":999,"REV_AT_EPOCH":89644,"BSTAR":0.00062773,"MEAN_MOTION_DOT":2.431e-5,"MEAN_MOTION_DDOT":0},{"OBJECT_NAME":"COSMOS 2251 DEB","OBJECT_ID":"1993-036NV","EPOCH":"2026-03-02T19:57:55.344384","MEAN_MOTION":14.77151491,"ECCENTRICITY":0.0055277,"INCLINATION":73.9541,"RA_OF_ASC_NODE":325.5993,"ARG_OF_PERICENTER":349.2771,"MEAN_ANOMALY":78.3313,"EPHEMERIS_TYPE":0,"CLASSIFICATION_TYPE":"U","NORAD_CAT_ID":34323,"ELEMENT_SET_NO":999,"REV_AT_EPOCH":89621,"BSTAR":0.0023251,"MEAN_MOTION_DOT":0.00016876,"MEAN_MOTION_DDOT":0},{"OBJECT_NAME":"COSMOS 2251 DEB","OBJECT_ID":"1993-036NX","EPOCH":"2026-03-02T10:22:10.091136","MEAN_MOTION":14.04908165,"ECCENTRICITY":0.01886914,"INCLINATION":73.8703,"RA_OF_ASC_NODE":52.335,"ARG_OF_PERICENTER":54.0532,"MEAN_ANOMALY":65.0354,"EPHEMERIS_TYPE":0,"CLASSIFICATION_TYPE":"U","NORAD_CAT_ID":34325,"ELEMENT_SET_NO":999,"REV_AT_EPOCH":86634,"BSTAR":0.0016062619,"MEAN_MOTION_DOT":3.004e-5,"MEAN_MOTION_DDOT":0},{"OBJECT_NAME":"COSMOS 2251 DEB","OBJECT_ID":"1993-036NZ","EPOCH":"2026-03-02T07:47:08.072736","MEAN_MOTION":14.91605807,"ECCENTRICITY":0.00324585,"INCLINATION":73.9955,"RA_OF_ASC_NODE":12.1232,"ARG_OF_PERICENTER":175.0267,"MEAN_ANOMALY":338.4826,"EPHEMERIS_TYPE":0,"CLASSIFICATION_TYPE":"U","NORAD_CAT_ID":34327,"ELEMENT_SET_NO":999,"REV_AT_EPOCH":90693,"BSTAR":0.0014894835,"MEAN_MOTION_DOT":0.00015099,"MEAN_MOTION_DDOT":0},{"OBJECT_NAME":"COSMOS 2251 DEB","OBJECT_ID":"1993-036PN","EPOCH":"2026-03-02T17:20:14.940096","MEAN_MOTION":13.79865499,"ECCENTRICITY":0.0288816,"INCLINATION":74.0782,"RA_OF_ASC_NODE":174.3528,"ARG_OF_PERICENTER":264.2677,"MEAN_ANOMALY":220.2504,"EPHEMERIS_TYPE":0,"CLASSIFICATION_TYPE":"U","NORAD_CAT_ID":34340,"ELEMENT_SET_NO":999,"REV_AT_EPOCH":85371,"BSTAR":0.0016106,"MEAN_MOTION_DOT":2.259e-5,"MEAN_MOTION_DDOT":0}]
