COSMOS 2251 DEB         
1 34276U 93036LW  26061.81285362  .00002975  00000+0  65439-3 0  9995
2 34276  74.0226 293.0082 0020943  56.8176  66.5631 14.57818078897594
COSMOS 2251 DEB         
1 34297U 93036MT  26061.64832090  .00000386  00000+0  13967-3 0  9998
2 34297  74.0484 137.4953 0017490 195.4118 281.2478 14.36707411892124
COSMOS 2251 DEB         
1 34301U 93036MX  26061.30963382  .00049597  00000+0  51746-2 0  9999
2 34301  74.0051   7.9220 0005385  53.5365  74.8335 14.89471140895830
COSMOS 2251 DEB         
1 34302U 93036MY  26061.81810109  .00002685  00000+0  83334-3 0  9990
2 34302  74.1813 336.9880 0078593 170.5490 247.1394 14.39787495888734
COSMOS 2251 DEB         
1 34303U 93036MZ  26061.63186006  .00007073  00000+0  14328-2 0  9995
2 34303  74.0055 136.4617 0137900 256.3425 226.3265 14.55548863891240
COSMOS 2251 DEB         
1 34304U 93036NA  26061.83336941  .00004348  00000+0  13025-2 0  9998
2 34304  74.0158 334.7609 0125885  93.8175 328.7389 14.38585030884484
COSMOS 2251 DEB         
1 34307U 93036ND  26061.43015657  .00000693  00000+0  63970-3 0  9999
2 34307  74.0535 185.2294 0392588 358.5576  62.5333 13.54467323839413
COSMOS 2251 DEB         
1 34313U 93036NK  26061.60607140  .00293125  00000+0  59307-2 0  9991
2 34313  73.9641 134.8200 0022522 298.5989  61.2955 15.45014959902863
COSMOS 2251 DEB         
1 34314U 93036NL  26061.67280621  .00001419  00000+0  67267-3 0  9998
2 34314  74.0062 165.7122 0105564 254.0717 231.8797 14.17644647877909
COSMOS 2251 DEB         
1 34316U 93036NN  26061.75681546  .00029298  00000+0  26061-2 0  9991
2 34316  74.0644 176.1117 0012082 270.7352  89.2448 14.95908044904043
COSMOS 2251 DEB         
1 34317U 93036NP  26061.31674270  .00000809  00000+0  69683-3 0  9995
2 34317  73.9217 264.7312 0336632 239.1634 305.4492 13.65243086847054
COSMOS 2251 DEB         
1 34321U 93036NT  26061.60763322  .00002431  00000+0  62773-3 0  9995
2 34321  74.0315   6.2524 0013777 122.0502  53.6374 14.50459619896444
COSMOS 2251 DEB         
1 34323U 93036NV  26061.83189056  .00016876  00000+0  23251-2 0  9993
2 34323  73.9541 325.5993 0055277 349.2771  78.3313 14.77151491896212
COSMOS 2251 DEB         
1 34325U 93036NX  26061.43206124  .00003004  00000+0  16063-2 0  9999
2 34325  73.8703  52.3350 0188691  54.0532  65.0354 14.04908165866345
COSMOS 2251 DEB         
1 34327U 93036NZ  26061.32439899  .00015099  00000+0  14895-2 0  9994
2 34327  73.9955  12.1232 0032458 175.0267 338.4826 14.91605807906932
COSMOS 2251 DEB         
1 34340U 93036PN  26061.72239514  .00002259  00000+0  16106-2 0  9996
2 34340  74.0782 174.3528 0288816 264.2677 220.2504 13.79865499853711
